TIANWANG 1C (TW-1C)     
1 40926U 15051B   17154.83965567  .00006430  00000-0  14998-3 0  9997
2 40926  97.2303 194.5046 0010679 210.3606 265.3147 15.42517934 94863
TIANWANG 1B (TW-1B)     
1 40927U 15051C   17154.90188949  .00006183  00000-0  14969-3 0  9990
2 40927  97.2396 194.5907 0010017 221.0613 263.1139 15.41420582 94829
TIANWANG 1A (TW-1A)     
1 40928U 15051D   17154.93439994  .00003210  00000-0  93657-4 0  9993
2 40928  97.2281 190.9884 0010846 241.9605 240.0138 15.36018762 94661
LAPAN-A2 (IO-86)        
1 40931U 15052B   17154.66763956  .00000716  00000-0  10775-4 0  9994
2 40931   6.0011 329.0991 0013410  48.7703 311.3594 14.76530021 90967
LQSAT                   
1 40958U 15057A   17154.86559794  .00000082  00000-0  20575-4 0  9998
2 40958  97.9776 230.4169 0019590 107.5934 252.7403 14.72966767 89152
CHUBUSAT-2              
1 41338U 16012B   17154.50854466  .00000334  00000-0  19502-4 0  9996
2 41338  31.0022 199.1341 0014000 284.2400  75.6680 14.99735845 70938
CHUBUSAT-3              
1 41339U 16012C   17154.50517901  .00000459  00000-0  29240-4 0  9995
2 41339  31.0106 198.3205 0013968 291.0985  68.8149 14.99942642 70915
OUFTI-1                 
1 41458U 16025C   17154.93098365  .00000632  00000-0  38523-4 0  9993
2 41458  98.1869 191.7501 0174035 334.3409  24.9255 15.03127981 60588
E-ST@R-II               
1 41459U 16025D   17154.88398011  .00001539  00000-0  86989-4 0  9995
2 41459  98.1883 191.6529 0173990 335.1241  24.1668 15.02988686 60571
AAUSAT 4                
1 41460U 16025E   17154.88918703  .00002649  00000-0  14623-3 0  9991
2 41460  98.1793 191.7528 0166770 333.4014  25.8700 15.03859253 60595
NUSAT 1 (LO-87)         
1 41557U 16033B   17154.77697093  .00001514  00000-0  59788-4 0  9993
2 41557  97.4635 234.2940 0015722  58.9758 301.3022 15.27003459 56380
BEESAT-4                
1 41619U 16040W   17154.83392961  .00001698  00000-0  80251-4 0  9995
2 41619  97.4633 217.3499 0013787 112.5085 247.7611 15.20702022 40562
PRATHAM                 
1 41783U 16059A   17154.75426040  .00000060  00000-0  21244-4 0  9993
2 41783  98.1679 216.2666 0033218 200.7775 159.2078 14.62836164 36630
ALSAT 1N                
1 41789U 16059G   17154.89060593  .00000142  00000-0  36246-4 0  9990
2 41789  98.1676 216.8751 0027927 194.0262 166.0155 14.64046298 36668
NAYIF-1 (EO-88)         
1 42017U 17008BX  17154.83372522  .00001564  00000-0  69719-4 0  9992
2 42017  97.4962 216.3157 0004916 266.7381  93.3293 15.22923828 16458
